{
  "norad_id": 60738,
  "name": "STARLINK-32304",
  "history": [
    {
      "epoch": "2026-03-28T11:21:07.988832",
      "apogee_km": 476.0403091621347,
      "perigee_km": 474.49788158630963,
      "latitude_deg": 43.770562947895506,
      "longitude_deg": -60.79112351988442,
      "semi_major_axis_km": 6853.406095374222,
      "eccentricity": 0.00011253,
      "inclination_deg": 53.1608,
      "raan_deg": 181.396,
      "arg_perigee_deg": 50.4202,
      "mean_anomaly_deg": 309.6898,
      "mean_motion_rev_day": 15.30181906
    }
  ]
}